STARLINK-1199           
1 45201U 20012Z   26068.25932625 -.00002037  00000+0 -58259-4 0  9999
2 45201  53.1569  25.8332 0001623  88.0191 272.0995 15.29352067335099
REAL                    
1 64875U 25154G   26068.72233414  .00022901  00000+0  82904-3 0  9994
2 64875  97.4133 137.2581 0001853 118.5876 241.5550 15.28408058 34830
